DELTA 2 R/B(1)          
1 20453U 90008B   26120.55186425  .00066221  00000+0  62258-3 0  9990
2 20453  35.6013 192.7344 0072520  25.4754 334.9533 15.62555170934235
COSMOS 2058             
1 20465U 90010A   26120.61440065  .00002985  00000+0  17334-3 0  9998
2 20465  82.4684 356.2671 0010358 144.6481 215.5438 15.11726349950085
SL-14 R/B               
1 20466U 90010B   26120.55257331  .00000443  00000+0  50555-4 0  9994
2 20466  82.5043 218.6729 0021074 126.6020 233.7138 14.83616086936174
SL-14 R/B               
1 20511U 90018B   26120.62009789  .00000341  00000+0  39848-4 0  9992
2 20511  82.5225 174.5676 0014719 281.9719  77.9846 14.82187501930279
HST                     
1 20580U 90037B   26120.47679333  .00007183  00000+0  23101-3 0  9995
2 20580  28.4757  46.5133 0001773 341.4865  18.5666 15.30213053781259
SL-16 R/B               
1 20625U 90046B   26120.58490292  .00000303  00000+0  18069-3 0  9996
2 20625  70.9989 188.9220 0015873 230.6024 129.3694 14.15017600855737
COSMOS 2084             
1 20663U 90055A   26120.52015206  .00001898  00000+0  14361-3 0  9991
2 20663  62.7887 158.7600 0008983 213.7696 146.2834 15.05922660944120
SL-6 R/B(2)             
1 20666U 90055D   26120.57464677  .00002406  00000+0  18675-3 0  9997
2 20666  62.7828  77.3722 0033149 357.7181   2.3762 15.03822679945994
SL-8 R/B                
1 20775U 90078B   26120.49378955  .00025844  00000+0  75219-3 0  9995
2 20775  82.9060 204.6730 0355823 198.9976 159.7695 14.90594124817013
SL-8 R/B                
1 21088U 91006B   26120.57137874  .00000175  00000+0  16093-3 0  9992
2 21088  82.9396 131.4604 0021036 248.5233 232.2955 13.77505894771211
OKEAN-3                 
1 21397U 91039A   26120.47401002  .00003867  00000+0  26943-3 0  9993
2 21397  82.5138 286.6461 0014683 149.9284 210.2789 15.05087952872821
COSMOS 2151             
1 21422U 91042A   26120.57500499  .00001868  00000+0  14678-3 0  9998
2 21422  82.4990  33.6203 0010742 241.1020 118.9127 15.00310151870973
SL-14 R/B               
1 21423U 91042B   26120.61670783  .00000344  00000+0  40464-4 0  9999
2 21423  82.4938 171.5052 0018502  72.4377 287.8857 14.81873093860761
ERS-1                   
1 21574U 91050A   26120.62127347  .00000326  00000+0  11878-3 0  9995
2 21574  98.7829 140.1518 0032808  49.7779 310.6271 14.39486723823200
ARIANE 40 R/B           
1 21610U 91050F   26120.61815504  .00000288  00000+0  98580-4 0  9997
2 21610  98.1915 170.8790 0001762 277.7490  82.3501 14.42928181826486
INTERCOSMOS 25          
1 21819U 91086A   26120.57426887  .00000971  00000+0  18783-3 0  9999
2 21819  82.5998 278.6242 1485633   5.1047 356.3412 12.12136672502970
SL-8 R/B                
1 21876U 92008B   26120.55880595  .00000057  00000+0  42898-4 0  9995
2 21876  82.9284 229.1948 0034258 352.0799  18.4068 13.75971140716550
SL-8 R/B                
1 21938U 92020B   26120.50181190 -.00000030  00000+0 -47100-4 0  9992
2 21938  82.9270 115.2786 0029675 150.7018   5.8057 13.75548060708250
USA 81                  
1 21949U 92023A   26120.42307592  .00000185  00000+0  61124-4 0  9995
2 21949  85.0040 101.5752 0001469 108.4371 251.6981 14.32384061102196
COSMOS 2219             
1 22219U 92076A   26120.65495764  .00000293  00000+0  17812-3 0  9992
2 22219  71.0604 269.4346 0016513 124.3714 235.8974 14.14099688725729
SL-16 R/B               
1 22220U 92076B   26120.60917644  .00000081  00000+0  64446-4 0  9996
2 22220  70.9992  79.0047 0012358   5.7669 167.2809 14.16865422729184
COSMOS 2221             
1 22236U 92080A   26120.39695159  .00001865  00000+0  16207-3 0  9990
2 22236  82.5050 229.5410 0014632  24.7372 335.4548 14.96406087788528
SL-16 R/B               
1 22285U 92093B   26120.61120065  .00000179  00000+0  11597-3 0  9996
2 22285  71.0218 255.2648 0006102 241.8500 118.2007 14.15460613720505
COSMOS 2228             
1 22286U 92094A   26120.57893595  .00001853  00000+0  15648-3 0  9999
2 22286  82.5198 187.6355 0019287 125.1340 235.1694 14.97428153783825
SL-16 R/B               
1 22566U 93016B   26120.37416275 -.00000198  00000+0 -76858-4 0  9993
2 22566  71.0038 106.6300 0012452 248.8284 111.1509 14.15307778709487
COSMOS 2242             
1 22626U 93024A   26120.51709615  .00001860  00000+0  15992-3 0  9994
2 22626  82.5208 217.1386 0017515 128.4124 231.8675 14.96762292788142
SL-16 R/B               
1 22803U 93059B   26120.63628134  .00000238  00000+0  14162-3 0  9994
2 22803  70.9900 261.5782 0015612 136.5589 223.6768 14.17240963686893
ARIANE 40 R/B           
1 22830U 93061H   26120.16322309  .00000204  00000+0  90366-4 0  9994
2 22830  98.4839 188.0127 0011750 128.6294 231.5944 14.32886567701478
COSMOS 2278             
1 23087U 94023A   26120.29663343  .00000039  00000+0  44849-4 0  9999
2 23087  71.0546  67.1231 0010809 302.0031  58.0041 14.14388993652104
SL-16 R/B               
1 23088U 94023B   26120.60262171  .00000205  00000+0  13063-3 0  9997
2 23088  70.9996 321.8661 0004937 236.2750 123.7903 14.15016294653437
SL-16 R/B               
1 23343U 94074B   26120.61147821  .00000444  00000+0  66087-4 0  9992
2 23343  97.7031 149.3073 0007816  59.5395  54.3679 14.79461019694925
SL-16 R/B               
1 23405U 94077B   26120.56396881 -.00000154  00000+0 -54246-4 0  9994
2 23405  70.9834 243.3512 0000288  45.5406 314.5741 14.15572588623573
ARIANE 40+ R/B          
1 23561U 95021B   26120.44162250  .00000263  00000+0  97785-4 0  9999
2 23561  98.4425 191.2021 0006421 357.7780  12.6966 14.39806210626690
SL-16 R/B               
1 23705U 95058B   26120.57347136 -.00000264  00000+0 -11044-3 0  9997
2 23705  71.0212  71.3238 0011168  30.8920 329.2858 14.15503477575196
SL-16 R/B               
1 24298U 96051B   26120.29864838  .00000095  00000+0  78068-4 0  9991
2 24298  70.7614  66.0013 0012518  57.9317 302.3017 14.12429245528934
ORBVIEW 2 (SEASTAR)     
1 24883U 97037A   26120.48467422  .00000243  00000+0  10057-3 0  9993
2 24883  98.8646 286.1918 0001125 261.2722  98.8336 14.35528004515903
SL-16 R/B               
1 25400U 98043G   26120.58211499  .00000044  00000+0  37235-4 0  9996
2 25400  98.8333  74.3414 0009078 219.5401 140.5117 14.26060703446389
SL-16 R/B               
1 25407U 98045B   26120.34703371  .00000002  00000+0  25084-4 0  9997
2 25407  71.0106  72.9373 0009326 297.9832  62.0347 14.16196386434419
ISS (ZARYA)             
1 25544U 98067A   26120.52250176  .00006189  00000+0  12023-3 0  9993
2 25544  51.6315 176.0292 0007158   7.8188 352.2911 15.49033593564362
CZ-4B R/B               
1 25732U 99025C   26120.60701846  .00000070  00000+0  54599-4 0  9999
2 25732  98.6527 163.6331 0036879 193.8744 319.7427 14.18275041395520
OKEAN-O                 
1 25860U 99039A   26120.62988505  .00000602  00000+0  85627-4 0  9994
2 25860  97.9349 179.9665 0001644 111.5886 248.5501 14.80408892442078
SL-16 R/B               
1 25861U 99039B   26120.42600491  .00000546  00000+0  75795-4 0  9990
2 25861  97.9872 179.4178 0016180  89.9453 270.3614 14.81795675444522
DELTA 2 R/B             
1 25876U 99041E   26120.61185980  .00000433  00000+0  10915-3 0  9998
2 25876  51.7605  93.8500 0502362 141.5443 222.2433 14.11937002370364
HELIOS 1B               
1 25977U 99064A   26120.49979804  .00001594  00000+0  18066-3 0  9991
2 25977  98.1650  24.2560 0000440 120.4435 239.6824 14.87876233692962
TERRA                   
1 25994U 99068A   26120.64677738  .00000404  00000+0  91252-4 0  9990
2 25994  97.9496 172.0692 0002968  46.8950 117.8594 14.61064311402669
SL-16 R/B               
1 26070U 00006B   26120.58784626  .00000221  00000+0  13667-3 0  9998
2 26070  71.0041 348.7130 0014452 104.5990 255.6737 14.15833415355902
TITAN 4B R/B            
1 26474U 00047B   26120.63525932  .00002901  00000+0  18303-3 0  9999
2 26474  67.9884 254.3906 0042873 336.3110  23.6064 15.09942848400754
ENVISAT                 
1 27386U 02009A   26120.64262840  .00000088  00000+0  42493-4 0  9991
2 27386  98.3805  73.0308 0001131  87.9006  85.0920 14.39053121266645
IDEFIX & ARIANE 42P R/B 
1 27422U 02021B   26120.58555985  .00000241  00000+0  10811-3 0  9993
2 27422  98.5925  58.5910 0012631  39.0826 321.1267 14.31058234251445
AQUA                    
1 27424U 02022A   26120.65058168  .00000878  00000+0  18459-3 0  9997
2 27424  98.4249  88.9958 0002089  90.6482  82.9780 14.62082523276329
CZ-4B R/B               
1 27432U 02024C   26120.58746010  .00000045  00000+0  46257-4 0  9994
2 27432  98.8738 173.7066 0049272 234.8534 293.3444 14.14556407236575
MIDORI II (ADEOS-II)    
1 27597U 02056A   26120.60651427  .00000299  00000+0  13531-3 0  9990
2 27597  98.7847  79.4723 0001042 139.7038 220.4221 14.29321805217711
H-2A R/B                
1 27601U 02056E   26120.64972053  .00000340  00000+0  13373-3 0  9992
2 27601  98.3282  79.0663 0070441   7.8746 164.5719 14.33796898221555
CZ-4B R/B               
1 28059U 03049C   26120.57750847  .00000416  00000+0  10661-3 0  9991
2 28059  98.6898 117.5324 0049288  73.7677 286.8934 14.55064236194140
CZ-2C R/B               
1 28222U 04012C   26120.62860601  .00076759  00000+0  60504-3 0  9994
2 28222  97.7131 191.0761 0013056 120.1003 240.1555 15.71091113212414
SL-16 R/B               
1 28353U 04021B   26120.50136321 -.00000210  00000+0 -84360-4 0  9999
2 28353  70.9979 123.7642 0006921 304.4609  55.5859 14.14602823130162
CZ-4B R/B               
1 28415U 04035C   26120.59328334  .00007621  00000+0  26172-3 0  9996
2 28415  97.3412 154.2201 0032745 141.9979 218.3582 15.29889609187848
CZ-2C R/B               
1 28480U 04046B   26120.51252227  .00000175  00000+0  80289-4 0  9996
2 28480  98.1970  32.2660 0139515   2.1646 358.0110 14.27012352115899
ARIANE 5 R/B            
1 28499U 04049H   26120.43759909  .00001143  00000+0  13175-3 0  9994
2 28499  98.2691 290.8568 0083993 182.5153 177.5651 14.85364694153476
